1 41788U 16059F   19254.75863938  .00003353  00000-0  50621-3 0  9990
2 41788  98.2431 331.5707 0030846 108.0312 252.4249 14.74685334158545